FMID,MarketName,Website,Facebook,Twitter,Youtube,OtherMedia,County,State,zip,Season1Date,Season1Time,Season2Date,Season2Time,Season3Date,Season3Time,Season4Date,Season4Time,x,y,Location,Credit,WIC,WICcash,SFMNP,SNAP,Organic,Bakedgoods,Cheese,Crafts,Flowers,Eggs,Seafood,Herbs,Vegetables,Honey,Jams,Maple,Meat,Nursery,Nuts,Plants,Poultry,Prepared,Soap,Trees,Wine,Coffee,Beans,Fruits,Grains,Juices,Mushrooms,PetFood,Tofu,WildHarvested,updateTime
1000519,Alexandria Bay Farmers Market,http://www.visitalexbay.org,https://www.facebook.com/pages/Alexandria-Bay-Chamber-of-Commerce/82504121853,,,,Jefferson,New York,13607,05/23/2014 to 05/23/2014,Fri: 9:00 AM-3:00 PM;,,,,,,,-75.916118,44.331171,,Y,Y,N,N,N,-,Y,N,Y,N,N,N,N,Y,Y,Y,Y,N,N,N,Y,N,N,N,N,Y,N,N,Y,N,N,N,N,N,N,2/1/2021 11:02:22 AM
1021329,Aurora Farmers Market,,,,,,Cayuga,New York,13026,05/29/2021 to 05/29/2021,Sat: 10:00 AM-2:00 PM;,,,,,,,-76.699995,42.744684,,Y,N,N,N,N,-,Y,N,Y,Y,Y,N,N,Y,Y,Y,Y,N,N,Y,Y,N,Y,Y,N,N,Y,N,Y,N,N,N,N,N,Y,1/30/2021 6:24:08 PM
1002064,Belmont Farmers Market,,Belmont Farmers Market,,,www.thebelmontfarmersmarket.com,Allegany,New York,14813,06/01/2021 to 06/01/2021,Thu: 11:00 AM-4:00 PM;,,,,,,,-78.053508,42.234077,,Y,Y,Y,Y,Y,N,Y,N,Y,Y,Y,N,Y,Y,Y,Y,Y,Y,N,N,Y,N,N,Y,N,N,N,N,Y,N,N,N,N,N,N,1/27/2021 9:03:15 PM
1021262,Broome County Regional Farmers Market,http://www.broomecountyregionalmarket.com,Broome County Regional Farmers Market,,,Instagram: broomecountyregionalfarmersmkt,Broome,New York,13905,01/01/2021 to 12/31/2021,Sat: 9:00 AM-1:00 PM;,,,,,,,-75.904648,42.129759,,Y,Y,N,Y,Y,Y,Y,Y,Y,Y,Y,Y,Y,Y,Y,Y,Y,N,N,N,Y,Y,Y,Y,Y,Y,Y,N,Y,N,N,Y,Y,N,Y,1/5/2021 10:02:05 AM
1021202,Canal Village Farmers' Market,,Canal Village Farmers' Market,,,,Orleans,New York,14103,01/01/2020 to 12/31/2020,Sat: 9:00 AM-2:00 PM;,,,,,,,-78.388368,43.220102,,Y,Y,N,Y,Y,N,Y,N,Y,N,Y,N,Y,Y,N,Y,N,Y,N,N,Y,Y,Y,Y,N,Y,N,N,Y,N,N,N,N,N,N,9/9/2020 7:55:23 PM
1000579,Clarence Hollow Farmers' Market,http://www.clarencefarmersmarket.com,https://www.facebook.com/clarencehollowfm,,,,Erie,New York,14031,06/01/2021 to 06/01/2021,Sat: 8:00 AM-1:00 PM;,,,,,,,-78.58945,42.98032,,Y,N,Y,Y,N,N,Y,Y,Y,Y,Y,N,Y,Y,Y,Y,Y,Y,N,N,Y,Y,Y,Y,Y,Y,Y,N,Y,N,Y,N,Y,N,N,2/2/2021 8:14:10 AM
1018381,Clifton Park Farmers' Market,http://www.saratogafarmersmarket.org/clifton-park-farmers-market/,https://www.facebook.com/Clifton-Park-Farmers-Market-440138679349915/,,,,Saratoga,New York,12065,06/04/2018 to 10/29/2018,Mon: 2:00 PM-5:00 PM;,,,,,,,-73.809271,42.869606,,Y,Y,N,Y,N,N,Y,N,N,Y,Y,N,N,Y,Y,Y,Y,Y,N,N,N,N,Y,N,N,N,N,N,Y,N,Y,N,N,N,N,8/8/2018 1:13:00 AM
1019823,Clinton Farmers Market,https://clintonnychamber.org/farmers-market/,https://www.facebook.com/ClintonNYFarmersMarket/,,,https://www.instagram.com/clintonfarmersmarketny/,Oneida,New York,13323,06/04/2020 to 10/01/2020,Thu: 10:00 AM-4:00 PM;,,,,,,,-75.378462,43.048866,,Y,N,N,N,Y,Y,Y,Y,Y,Y,Y,N,Y,Y,Y,Y,Y,Y,N,Y,Y,Y,Y,Y,Y,N,Y,Y,Y,N,N,Y,Y,N,Y,4/6/2020 10:14:43 AM
1019308,Delmar Farmers Market,http://delmarmarket.org,delmarmarket,@delmarmarket,,,Albany,New York,12054,05/05/2018 to 12/22/2018,Sun: 9:00 AM-1:00 PM;,,,,,,,-73.825895,42.619919,,Y,N,Y,Y,Y,Y,Y,Y,Y,Y,Y,Y,Y,Y,N,N,Y,Y,N,N,Y,Y,Y,Y,Y,Y,Y,N,Y,Y,N,Y,Y,N,N,10/19/2018 6:32:07 PM
1009894,Down to Earth Chelsea Farmers Market ,,https://www.facebook.com/chelseanycfarmersmarket,https://twitter.com/DowntoEarthMkts,,https://www.instagram.com/downtoearthmkts,New York,New York,10011,05/15/2021 to 05/15/2021,Sat: 9:00 AM-3:00 PM;,,,,,,,-74.000805,40.746359,,Y,Y,Y,Y,Y,Y,Y,Y,N,Y,Y,Y,Y,Y,Y,Y,Y,Y,N,Y,Y,Y,Y,N,N,Y,Y,Y,Y,Y,Y,Y,N,Y,N,1/25/2021 12:45:47 PM
1021296,Down to Earth Cunningham Park Farmers Market,https://downtoearthmarkets.com/,https://www.facebook.com/cunninghamparkfarmersmarket,,,https://www.instagram.com/downtoearthmkts,Queens,New York,11366,05/09/2021 to 05/09/2021,Sun: 9:00 AM-2:00 PM;,,,,,,,-73.773482,40.7308,,Y,Y,Y,Y,Y,Y,Y,Y,N,Y,Y,Y,Y,Y,Y,Y,Y,Y,N,N,Y,Y,Y,N,N,Y,Y,N,Y,N,Y,Y,N,N,N,1/25/2021 12:59:44 PM
1010954,Down to Earth Larchmont Farmers Market,,https://www.facebook.com/larchmontfarmersmarket,twitter.com/DowntoEarthMkts,,https://instagram.com/downtoearthmkts/,Westchester,New York,10538,04/24/2021 to 04/24/2021,Sat: 8:30 AM-1:00 PM;,,,,,,,-73.760008,40.933512,,Y,Y,Y,Y,Y,Y,Y,Y,Y,Y,Y,Y,Y,Y,Y,Y,Y,Y,N,Y,Y,Y,Y,Y,N,Y,Y,Y,Y,Y,Y,Y,Y,N,N,1/25/2021 12:36:48 PM
1016793,Down to Earth Mamaroneck Winter Farmers Market,,https://www.facebook.com/mamaroneckfarmersmarket,https://twitter.com/DowntoEarthMkts,,https://www.instagram.com/downtoearthmkts,Westchester,New York,10543,01/09/2021 to 01/09/2021,Sat: 9:00 AM-1:00 PM;,,,,,,,-73.730404,40.944797,,Y,Y,Y,Y,Y,Y,Y,Y,N,N,Y,Y,Y,Y,Y,Y,Y,Y,N,Y,N,Y,Y,N,N,Y,Y,Y,Y,Y,Y,Y,N,N,N,1/25/2021 12:16:12 PM
1010969,Down to Earth McGolrick Park Farmers Market,,https://www.facebook.com/mcgolrickparkfarmersmarket,https://twitter.com/DowntoEarthMkts,,https://www.instagram.com/downtoearthmkts,Kings,New York,11222,03/07/2021 to 03/07/2021,Sun: 10:00 AM-3:00 PM;,,,,,,,-73.943291,40.724358,,Y,Y,Y,Y,Y,Y,Y,Y,N,Y,Y,Y,Y,Y,Y,Y,Y,Y,N,N,Y,Y,Y,N,N,Y,Y,N,Y,N,Y,Y,N,Y,N,1/25/2021 12:51:27 PM
1010972,Down to Earth Morningside Park Farmers Market,,https://www.facebook.com/morningsideparkfarmersmarket/,https://twitter.com/DowntoEarthMkts,,https://instagram.com/downtoearthmkts/,New York,New York,10026,01/09/2021 to 01/09/2021,Sun: 10:00 AM-3:00 PM;,05/15/2021 to 05/15/2021,Sat: 9:00 AM-3:00 PM;,,,,,-73.959645,40.801254,,Y,Y,Y,Y,Y,Y,Y,Y,N,Y,Y,Y,Y,Y,Y,Y,Y,Y,N,N,Y,Y,Y,Y,N,Y,Y,N,Y,N,Y,Y,N,N,N,1/25/2021 12:20:48 PM
1010958,Down to Earth New Rochelle Farmers Market,,https://www.facebook.com/newrochellefarmersmarket/,https://twitter.com/DowntoEarthMkts,,http://www.instagram.com/downtoearthmkts/,Westchester,New York,10804,06/11/2021 to 06/11/2021,Fri: 9:00 AM-2:00 PM;,,,,,,,-73.791017,40.93357,,Y,Y,Y,Y,Y,Y,Y,N,N,Y,Y,Y,Y,Y,Y,Y,Y,Y,N,Y,Y,Y,Y,N,N,Y,Y,Y,Y,Y,Y,Y,N,N,N,1/25/2021 12:33:42 PM
1016792,Down to Earth Ossining Farmers Market,,https://www.facebook.com/ossiningfarmersmarket/,https://twitter.com/DowntoEarthMkts,,https://www.instagram.com/downtoearthmkts,Westchester,New York,10562,01/01/2021 to 01/01/2021,Sat: 9:00 AM-1:00 PM;,05/08/2021 to 05/08/2021,Sat: 8:30 AM-1:00 PM;,,,,,-73.86341,41.160793,,Y,Y,Y,Y,Y,Y,Y,Y,Y,Y,Y,Y,Y,Y,Y,Y,Y,Y,N,Y,Y,Y,Y,Y,N,Y,Y,Y,Y,Y,Y,Y,N,N,N,1/25/2021 12:21:26 PM
1009895,Down to Earth Park Slope Farmers Market,,https://www.facebook.com/parkslopefarmersmarket/,https://twitter.com/DowntoEarthMkts,,https://www.instagram.com/downtoearthmkts,Kings,New York,11215,01/01/2021 to 01/01/2021,Sun: 10:00 AM-3:00 PM;,,,,,,,-73.983867,40.672303,,Y,Y,Y,Y,Y,Y,Y,Y,N,Y,Y,Y,Y,Y,Y,Y,Y,Y,N,Y,Y,Y,Y,Y,N,Y,Y,Y,Y,Y,Y,Y,N,Y,Y,1/25/2021 12:16:43 PM
1010982,Down to Earth Queens Botanical Garden Farmers Market,,https://www.facebook.com/queensbotanicalfarmersmarket,https://twitter.com/DowntoEarthMkts,,https://instagram.com/downtoearthmkts/,Queens,New York,11355,06/11/2021 to 06/11/2021,Fri: 8:30 AM-4:00 PM;,,,,,,,-73.826548,40.751776,,Y,Y,Y,Y,Y,N,N,N,N,N,Y,N,Y,Y,Y,N,N,N,N,N,Y,N,N,N,N,N,N,N,Y,N,N,N,N,N,N,1/25/2021 12:54:44 PM
1010960,Down to Earth Rye Farmers Market,,https://www.facebook.com/ryefarmersmarket,twitter.com/DowntoEarthMkts,,instagram.com/downtoearthmkts/,Westchester,New York,10580,05/09/2021 to 05/09/2021,Sun: 8:30 AM-2:00 PM;,,,,,,,-73.686043,40.983895,,Y,Y,Y,Y,Y,Y,Y,Y,Y,Y,Y,Y,Y,Y,Y,Y,Y,Y,N,Y,Y,Y,Y,Y,N,Y,Y,Y,Y,Y,Y,Y,Y,N,N,1/25/2021 12:41:08 PM
1019079,East Greenbush Library & YMCA Farmers Market,https://eastgreenbushlibrary.org/events-newsletters/farmers-market/,https://www.facebook.com/EastGreenbushLibraryYMCAFarmerMarket/,@eglibrary,,Instagram: @eglibrary,Rensselaer,New York,12061,06/13/2018 to 10/03/2018,Wed: 4:00 PM-7:00 PM;,,,,,,,-73.695566,42.618063,,Y,Y,N,N,N,-,Y,Y,N,N,Y,N,N,Y,Y,Y,Y,N,N,Y,N,N,Y,Y,Y,Y,N,N,Y,N,N,N,Y,N,N,4/30/2018 11:54:05 AM
1019094,East Side Farmers' Market,http://chemung.cce.cornell.edu/agriculture/buy-local/farmers-markets,https://www.facebook.com/EastSideMarketElmiraNY/,,,,Chemung,New York,14901,06/15/2018 to 10/12/2018,Fri: 2:30 PM-6:00 PM;,,,,,,,-76.794875,42.088757,,Y,Y,N,Y,Y,-,Y,Y,Y,N,Y,N,N,Y,Y,Y,Y,Y,N,N,Y,Y,Y,Y,N,N,N,N,Y,N,N,Y,N,N,N,1/4/2021 10:31:27 AM
1019125,Eastgate Plaza Farmers Market,,https://www.facebook.com/EastgatePlazaClarence/,,,,Erie,New York,14221,05/23/2018 to 10/24/2018,Wed: 3:00 PM-7:00 PM;,,,,,,,-78.595325,42.97573,,Y,N,N,N,N,Y,Y,Y,Y,Y,Y,N,Y,Y,Y,Y,Y,Y,N,N,Y,Y,Y,Y,N,Y,Y,N,Y,N,N,Y,Y,Y,N,6/7/2018 10:33:14 AM
1021207,Elmwood Bidwell Farmers' Market,http://elmwoodmarket.org,ElmwoodBidwellFarmersMarket,,,,Erie,New York,14221,,Sat: 8:00 AM-1:00 PM;,,,,,,,-78.877625,42.923862,,Y,Y,N,N,Y,Y,Y,Y,N,Y,Y,Y,N,Y,Y,N,Y,Y,N,N,Y,Y,N,Y,Y,Y,Y,N,Y,N,N,Y,N,N,N,9/11/2020 12:10:44 PM
1019499,Farm to Preschool Market: Mercy Cares for Kids,http://www.sphp.com/mercy-cares-for-kids,,,,,Albany,New York,12206,06/12/2019 to 09/25/2019,Wed: 3:30 PM-5:00 PM;,,,,,,,-73.798353,42.665745,,Y,Y,Y,Y,Y,Y,N,N,N,Y,N,N,N,Y,N,N,N,N,N,N,N,N,N,N,N,N,N,N,N,N,N,N,N,N,N,4/30/2019 11:58:28 AM
1012308,Festival Farmers Market,,,,,,Schoharie,New York,12043,07/14/2018 to 10/13/2018,Wed: 3:00 PM-5:00 PM;Sat: 10:00 AM-2:00 PM;,,,,,,,-74.4669868,42.6792512,,Y,Y,Y,Y,Y,N,Y,Y,Y,Y,Y,N,Y,Y,Y,Y,Y,Y,N,N,Y,Y,N,Y,N,N,N,N,Y,N,N,N,N,N,N,7/27/2018 1:07:35 PM
1019949,Fulton Stall Market - Indoor Farmers Market,http://fultonstallmarket.org,fultonmarketnyc,fultonmarketnyc,,instagram fultonstallmarket,New York,New York,10038,,Mon: 11:30 AM-4:00 PM;Tue: 11:30 AM-4:00 PM;Wed: 11:30 AM-4:00 PM;Thu: 11:30 AM-4:00 PM;Fri: 11:30 AM-4:00 PM;Sat: 11:30 AM-4:00 PM;,,,,,,,-74.003474,40.706222,,Y,N,N,N,Y,Y,Y,Y,N,N,Y,Y,Y,Y,Y,Y,Y,Y,N,N,N,Y,Y,N,N,Y,Y,N,Y,Y,Y,Y,Y,N,N,7/6/2020 3:11:54 PM
1019710,Glens Falls Farmers Market Association,https://www.glensfallsfarmersmarket.com/,https://www.facebook.com/GFFarmersMarket/,,,https://www.instagram.com/gffarmersmarket/,Warren,New York,12801,,Sun: 9:00 AM-12:00 PM;,,,,,,,-73.653504,43.317546,,Y,Y,Y,Y,Y,Y,Y,Y,Y,N,Y,Y,Y,Y,Y,Y,Y,Y,N,N,N,Y,Y,Y,N,N,Y,Y,Y,N,Y,Y,Y,N,Y,10/28/2019 9:21:34 AM
1012253,Goshen Farmers Market,http://goshennychamber.com,Goshenfarmersmarket,,,,Orange,New York,10924,05/25/2018 to 10/26/2018,Fri: 10:00 AM-5:00 PM;,,,,,,,-74.322899,41.401966,,Y,Y,Y,Y,N,N,Y,Y,N,N,Y,Y,Y,Y,Y,Y,Y,Y,N,N,Y,Y,N,Y,N,Y,Y,N,Y,N,N,Y,Y,N,N,7/29/2018 7:06:08 PM
1019989,Grass Roots Farmers Market,,Grassroots Farmers Market,,,Instagram - Grassroots FM,New York,New York,10031,07/07/2020 to 11/28/2020,Tue: 9:00 AM-4:00 PM;Sat: 9:00 AM-4:00 PM;,,,,,,,-73.943475,40.823804,,Y,Y,N,Y,Y,N,Y,N,N,N,Y,N,N,Y,Y,Y,N,N,N,N,N,N,N,N,N,N,N,N,Y,N,N,N,N,N,N,7/30/2020 1:30:11 AM
1006059,Greater Watertown-North Country Chamber of Commerce Farm & Craft Market,http://www.watertownfarmandcraft.com,https://www.facebook.com/watertownfarmandcraft/?ref=br_rs,,,,Jefferson,New York,13601,05/23/2018 to 10/10/2018,Wed: 6:30 AM-3:00 PM;,,,,,,,-75.9112726897001,43.9720956981182,,Y,N,Y,N,Y,Y,Y,Y,Y,Y,Y,N,Y,Y,Y,Y,Y,Y,N,Y,Y,Y,Y,Y,Y,Y,Y,N,Y,N,N,Y,Y,N,N,7/27/2018 8:47:36 AM
1019383,Harvest Home 125th Street Market,,,,,,New York,New York,,06/04/2019 to 11/19/2019,Tue: 8:00 AM-4:00 PM;,,,,,,,-73.947702,40.808707,,Y,Y,Y,Y,Y,N,Y,N,N,N,N,N,N,Y,N,N,N,N,N,N,N,N,N,N,N,N,N,N,Y,N,N,N,N,N,N,2/5/2019 10:44:29 AM
1019373,Harvest Home Brower Park Market,http://harvesthomefm.org,,,,,Kings,New York,,06/06/2019 to 11/14/2019,Thu: 8:00 AM-4:00 PM;,,,,,,,-73.94453,40.674043,,Y,Y,Y,Y,Y,N,N,N,N,N,N,N,N,Y,N,N,N,N,N,N,N,N,N,N,N,N,N,N,Y,N,N,N,N,N,N,2/5/2019 9:49:19 AM
1019374,Harvest Home Clinton Hill Market,,,,,,New York,New York,,06/04/2019 to 11/19/2019,Tue: 8:00 AM-4:00 PM;,,,,,,,-73.96631,40.688145,,Y,Y,Y,Y,Y,N,N,N,N,N,N,N,N,Y,N,N,N,N,N,N,N,N,N,N,N,N,N,N,Y,N,N,N,N,N,N,2/5/2019 9:49:55 AM
1019366,Harvest Home Co-Op City Market,,,,,,Bronx,New York,,06/05/2019 to 11/20/2019,Wed: 8:00 AM-4:00 PM;,,,,,,,-73.831007,40.870274,,Y,Y,Y,Y,Y,N,Y,N,N,N,N,N,N,Y,Y,Y,N,N,N,N,N,N,N,N,N,N,N,N,Y,N,N,N,N,N,N,1/30/2019 4:26:10 PM
1019375,Harvest Home Coney Island Hospital Market,,,,,,Kings,New York,,06/05/2019 to 11/20/2019,Wed: 8:00 AM-4:00 PM;Fri: 8:00 AM-4:00 PM;,,,,,,,-73.966129,40.58551,,Y,Y,Y,Y,Y,N,Y,N,N,N,N,N,N,Y,Y,Y,Y,N,N,N,N,N,N,N,N,N,N,N,Y,N,N,N,N,N,N,2/5/2019 9:48:14 AM
1019380,Harvest Home East Harlem Market,,,,,,New York,New York,,06/06/2019 to 11/14/2019,Thu: 8:00 AM-4:00 PM;,,,,,,,-73.945625,40.790266,,Y,Y,Y,Y,Y,N,N,N,N,N,N,N,N,Y,N,N,N,N,N,N,N,N,N,N,N,N,N,N,Y,N,N,N,N,N,N,2/5/2019 10:24:52 AM
1019381,Harvest Home Harlem Hospital Market,,,,,,New York,New York,,01/01/2019 to 12/31/2019,Fri: 8:00 AM-4:00 PM;,,,,,,,-73.9401,40.814968,,Y,Y,Y,Y,Y,N,Y,N,N,N,N,N,N,Y,Y,Y,Y,N,N,N,N,N,N,N,N,N,N,N,Y,N,N,N,N,N,N,2/5/2019 10:38:46 AM
1019377,Harvest Home Hunts Point Market,,,,,,Bronx,New York,,06/05/2019 to 11/20/2019,Wed: 8:00 AM-4:00 PM;,,,,,,,-73.890698,40.820779,,Y,Y,Y,Y,Y,N,N,N,N,N,N,N,N,Y,N,N,N,N,N,N,N,N,N,N,N,N,N,N,Y,N,N,N,N,N,N,2/5/2019 10:02:03 AM
1019378,Harvest Home Jacobi Hospital Market,,,,,,Bronx,New York,,06/04/2019 to 11/19/2019,Tue: 8:00 AM-4:00 PM;Fri: 8:00 AM-4:00 PM;,,,,,,,-73.846979,40.857347,,Y,Y,Y,Y,Y,N,Y,N,N,N,N,N,N,Y,Y,Y,N,N,N,N,N,N,N,N,N,N,N,N,Y,N,N,N,N,N,N,2/5/2019 10:03:55 AM
1019376,Harvest Home Kings County Hospital Market,,,,,,Kings,New York,,06/05/2019 to 11/20/2019,Wed: 8:00 AM-4:00 PM;,,,,,,,-73.94252,40.655889,,Y,Y,Y,Y,Y,N,N,N,N,N,N,N,N,Y,N,N,N,N,N,N,N,N,N,N,N,N,N,N,Y,N,N,N,N,N,N,2/5/2019 9:59:55 AM
1019382,Harvest Home Lenox Avenue Market,,,,,,New York,New York,,06/08/2019 to 11/16/2019,Sat: 8:00 AM-4:00 PM;,,,,,,,-73.948857,40.803029,,Y,Y,Y,Y,Y,N,N,N,N,N,N,N,N,Y,N,N,N,N,N,N,N,N,N,N,N,N,N,N,Y,N,N,N,N,N,N,2/5/2019 10:42:23 AM
1002339,Harvest Home Metropolitan Hospital Market,http://harvesthomefm.org,,,,,New York,New York,,06/07/2019 to 11/15/2019,Fri: 8:00 AM-4:00 PM;,,,,,,,-73.94622,40.785539,,Y,Y,Y,Y,Y,N,Y,N,N,N,N,N,N,Y,Y,Y,N,N,N,N,N,N,Y,N,N,N,Y,N,Y,N,N,N,N,N,N,1/30/2019 4:14:34 PM
1002335,Harvest Home Mt. Eden Market,http://www.harvesthomefm.org,https://www.facebook.com/HarvestHomeMkts/,https://twitter.com/HarvestHomeMkts,,https://www.instagram.com/harvesthomemkts/,Bronx,New York,,06/04/2019 to 11/19/2019,Tue: 8:00 AM-4:00 PM;Thu: 8:00 AM-4:00 PM;,,,,,,,-73.909517,40.8427,,Y,Y,Y,Y,Y,N,Y,N,N,N,N,N,N,Y,Y,Y,N,N,N,N,N,N,N,N,N,N,N,N,Y,N,N,N,N,N,N,1/30/2019 4:18:05 PM
1005332,Harvest Home North Central Bronx Market,,,,,,Bronx,New York,,06/05/2019 to 11/20/2019,Wed: 8:00 AM-4:00 PM;,,,,,,,-73.883864,40.880479,,Y,Y,Y,Y,Y,N,Y,N,N,N,N,N,N,Y,N,Y,N,N,N,N,N,N,N,N,N,N,N,N,Y,N,N,N,N,N,N,1/30/2019 4:22:25 PM
1019379,Harvest Home St. Mary's Park Market,,,,,,Bronx,New York,,06/06/2019 to 11/14/2019,Thu: 8:00 AM-4:00 PM;,,,,,,,-73.911898,40.81385,,Y,Y,Y,Y,Y,N,N,N,N,N,N,N,N,Y,N,N,N,N,N,N,N,N,N,N,N,N,N,N,Y,N,N,N,N,N,N,2/5/2019 10:23:11 AM
1002345,Harvest Home West Harlem Market,,,,,,New York,New York,,06/04/2019 to 11/19/2019,Tue: 8:00 AM-4:00 PM;,,,,,,,-73.953193,40.822369,,Y,Y,Y,Y,Y,N,N,N,N,N,N,N,N,Y,N,N,N,N,N,N,N,N,N,N,N,N,N,N,Y,N,N,N,N,N,N,1/30/2019 12:51:26 PM
1005674,Hudson Farmers Market,http://www.hudsonfarmersmarketny.com,https://www.facebook.com/hudson.markt,,,,Columbia,New York,12534,05/01/2019 to 11/01/2019,Sat: 9:00 AM-1:00 PM;,,,,,,,-73.783692,42.248656,,Y,Y,Y,Y,Y,Y,Y,Y,Y,Y,Y,Y,Y,Y,Y,Y,Y,Y,N,Y,Y,Y,Y,Y,N,Y,Y,Y,Y,Y,Y,Y,N,N,Y,12/26/2018 11:16:53 AM
1018772,Indian Lake Community Farmers Market ,,Indian Lake Community Farmers Market,,,,Hamilton,New York,12842,07/03/2021 to 07/03/2021,Sat: 10:00 AM-2:00 PM;,,,,,,,-74.270529,43.782397,,Y,N,N,N,N,Y,Y,Y,Y,Y,Y,N,Y,Y,Y,Y,Y,Y,N,Y,Y,Y,N,N,N,N,Y,N,Y,N,N,Y,Y,N,N,1/18/2021 10:24:17 PM
1019340,Isabahlia farmers Market,http://Isabahlialoefinc.org,Isabahlia ladies of Elegance Foundation Inc,Isabahlialoef,,,Kings,New York,11212,06/30/2018 to 10/27/2018,Sat: 8:00 AM-4:00 PM;,11/03/2018 to 12/08/2018,Sat: 8:00 AM-1:00 PM;,,,,,-73.901875,40.663651,,Y,Y,Y,Y,Y,N,Y,N,N,Y,Y,N,N,Y,Y,Y,N,N,N,N,N,N,N,N,N,N,N,N,Y,N,N,N,N,N,N,12/29/2018 8:21:05 AM
1003269,Kingston Farmers' Market,http://www.kingstonfarmersmarket.org,Facebook.com/kingstonfarmersmarket,,,@kingstonfarmersmarket,Ulster,New York,12402,01/01/2019 to 04/27/2019,Sat: 10:00 AM-2:00 PM;,05/11/2019 to 11/17/2019,Sat: 9:00 AM-2:00 PM;,,,,,-74.019483,41.932986,,Y,Y,Y,Y,Y,Y,Y,Y,Y,Y,Y,Y,Y,Y,Y,Y,Y,Y,N,Y,Y,Y,Y,Y,Y,Y,Y,N,Y,Y,Y,Y,Y,N,Y,1/2/2019 12:28:30 PM
1003343,La Familia Verde Farmers Market,http://www.lafamiliaverde.org,,,,,Bronx,New York,10460,07/09/2019 to 11/12/2019,Tue: 8:00 AM-3:00 PM;,,,,,,,-73.893737,40.846468,,Y,Y,Y,Y,Y,N,Y,N,N,Y,Y,N,Y,Y,Y,Y,N,N,N,N,N,N,N,N,N,N,N,N,Y,N,Y,N,N,N,N,1/2/2019 12:54:29 PM
1019986,La Familia Verde Market,http://lafamiliaverde.org,,,,,Bronx,New York,10457,07/07/2020 to 11/17/2020,Tue: 8:00 AM-2:00 PM;,,,,,,,-73.891978,40.849357,,Y,Y,Y,Y,Y,N,Y,N,N,N,Y,N,N,Y,N,N,N,N,N,N,N,N,N,N,N,N,N,N,Y,N,N,N,N,N,N,7/29/2020 7:56:18 PM
1012206,Lake Placid Farmers' Market ,http://www.ausablevalleygrangefarmersmarkets.com/lake-placid.html,https://www.facebook.com/ausablevalleygrangefarmersmarkets/,,,,Essex,New York,12946,06/27/2018 to 10/17/2018,Wed: 2:00 PM-6:00 PM;,,,,,,,-73.9841054,44.2770413,,Y,Y,N,N,Y,Y,Y,Y,Y,Y,Y,N,N,Y,Y,Y,Y,Y,N,N,N,Y,Y,Y,N,N,Y,N,Y,N,Y,Y,N,N,Y,8/14/2018 10:37:23 AM
1019427,Lakewood NY Farmers' and Artisans' Market,http://lakewoodny.com/government/lakewoods-farmers-artisans-market/,https://www.facebook.com/lakewoodnyfarmersmarket/,,,https://www.instagram.com/farmersmarketlakewoodny/,Chautauqua,New York,14750,07/11/2019 to 09/26/2019,Thu: 10:00 AM-2:00 PM;,,,,,,,-79.326095,42.103565,,Y,N,Y,Y,N,Y,Y,N,Y,Y,Y,N,N,Y,Y,Y,Y,Y,N,N,N,Y,N,Y,Y,N,N,N,Y,N,Y,Y,N,N,Y,3/11/2019 8:14:02 PM
1004651,Lewis County General Hospitals Farmers Market,http://www.lcgh.net,,,,,Lewis,New York,13367,06/20/2013 to 09/26/2013,Thu: 11:00 AM-3:00 PM;,,,,,,,-75.500665,43.794672,,Y,Y,Y,Y,N,-,Y,Y,N,N,N,N,N,Y,Y,N,Y,N,N,N,N,N,N,N,N,N,N,N,Y,N,N,N,N,N,N,7/27/2018 9:59:55 AM
1018922,Lowville Farm and Craft Market,,https://www.facebook.com/lowvillefarmandcraftmarket/,,,,Lewis,New York,13367,06/02/2018 to 10/27/2018,Sat: 8:00 AM-2:00 PM;,,,,,,,-75.491021,43.793854,,Y,Y,Y,Y,N,Y,Y,Y,Y,Y,Y,N,Y,Y,Y,Y,Y,Y,N,N,Y,Y,Y,Y,Y,Y,Y,N,Y,N,N,Y,Y,N,N,1/31/2018 3:01:48 PM
1011901,Montour Falls Farmers Market,http://www.montourfallsfarmersmarket.com,https://www.facebook.com/Montour-Falls-Library-140122486056562,,,,Schuyler,New York,14865,05/03/2018 to 10/04/2018,Thu: 4:00 PM-7:00 PM;,,,,,,,-76.847748,42.346431,,Y,Y,Y,Y,Y,Y,Y,Y,N,Y,Y,N,Y,Y,Y,Y,Y,Y,N,N,Y,Y,Y,N,N,Y,Y,N,Y,N,N,Y,N,N,Y,8/8/2018 9:44:15 AM
1020055,Narrowsburg Farmers' Market,https://narrowsburgfarmersmarket.org/,https://www.facebook.com/narrowsburgfarmmarket/,,,https://www.instagram.com/narrowsburgfarmmarket/,Sullivan,New York,12764,05/16/2020 to 10/31/2020,Sat: 10:00 AM-1:00 PM;,,,,,,,-75.05512,41.596136,,Y,N,N,N,N,-,Y,Y,N,Y,Y,N,N,Y,Y,Y,N,Y,N,N,N,N,Y,N,N,Y,N,N,Y,N,N,Y,N,N,N,8/11/2020 1:40:58 PM
1021549,Newburgh Farmers' Market,https://www.commongroundfarm.org/markets/newburgh-farmers-market,https://www.facebook.com/NewburghNYFarmersMarket,,,https://www.instagram.com/newburghnyfarmersmarket/,Orange,New York,12550,06/12/2021 to 06/12/2021,Sat: 9:00 AM-2:00 PM;,,,,,,,-74.011014,41.49981,,Y,Y,Y,Y,Y,Y,Y,N,Y,Y,Y,N,N,Y,Y,Y,Y,Y,N,N,N,N,Y,Y,N,Y,Y,N,Y,N,N,N,N,N,N,6/28/2021 3:04:01 PM
1019407,North Creek Farmers Market,http://www.NorthCreekFarmersMarket.com,https://www.facebook.com/NorthCreekFarmersMarket,,,,Warren,New York,12843,06/20/2019 to 09/19/2019,Thu: 2:00 PM-6:00 PM;,,,,,,,-73.988272,43.702638,,Y,N,N,N,Y,Y,Y,Y,Y,N,Y,N,N,Y,Y,Y,Y,Y,N,N,N,Y,Y,Y,N,Y,Y,N,Y,N,N,Y,N,N,Y,3/1/2019 7:13:25 PM
1019008,Norwich Farmers Market,http://www.lambsquartersinc.com,Norwich NY Farmers Market,,,,Chenango,New York,13815,01/06/2021 to 01/06/2021,Mon: 12:00 PM-6:00 PM;Tue: 12:00 PM-6:00 PM;Wed: 10:00 AM-2:00 PM;Thu: 12:00 PM-6:00 PM;Fri: 12:00 PM-4:00 PM;Sun: 12:00 PM-6:00 PM;,,,,,,,-75.523641,42.531632,,Y,Y,N,Y,Y,Y,Y,Y,N,Y,Y,N,Y,Y,Y,N,Y,Y,N,N,N,Y,Y,Y,N,N,N,Y,Y,Y,N,N,N,N,Y,3/1/2021 1:25:13 PM
1020023,Ovid Farmers Market,,https://www.facebook.com/ovidfarmersmarket,,,,Seneca,New York,14521,06/19/2020 to 09/25/2020,Fri: 3:00 PM-7:00 PM;,,,,,,,-76.822157,42.676729,,Y,N,Y,Y,Y,N,Y,N,Y,Y,Y,N,N,Y,Y,Y,Y,N,N,N,N,N,N,N,N,N,N,N,Y,N,N,N,N,N,N,8/3/2020 2:35:03 PM
1019723,Palisades Winter Farmers' Market,http://www.palisadesfm.org,https://www.facebook.com/Palisades-Indoor-Farmers-Market-NY-198235466870315/,,,https://www.instagram.com/palisadescommunitycenterny/,Rockland,New York,10964,01/11/2020 to 03/28/2020,Sat: 9:00 AM-2:00 PM;,,,,,,,-73.917284,41.011605,,Y,N,N,N,N,-,Y,Y,Y,N,Y,Y,N,Y,Y,Y,N,Y,N,N,Y,N,Y,N,N,N,Y,N,Y,N,N,Y,Y,N,N,12/11/2019 4:11:42 PM
1019674,Pawling Farmers Market,http://www.pawlingfarmersmarket.org,Pawling Farmer's Market - Saturdays 9am-1pm,,,pawlingfarmersmarket,Dutchess,New York,12564,06/15/2019 to 10/12/2019,Sat: 9:00 AM-1:00 PM;,,,,,,,-73.600845,41.564215,,Y,N,N,N,N,Y,Y,Y,Y,Y,Y,N,Y,Y,Y,Y,Y,Y,N,N,N,Y,N,Y,N,Y,Y,N,Y,N,N,Y,Y,N,N,8/7/2019 7:56:19 PM
1002060,Philmont Farmers' Market ,http://www.philmontcooperative.com,,,,,Columbia,New York,12565,01/01/2018 to 12/31/2018,Fri: 4:00 PM-7:00 PM;Sun: 10:00 AM-2:00 PM;,,,,,,,-73.649443,42.249303,,Y,N,Y,Y,Y,Y,Y,Y,Y,Y,Y,N,Y,Y,Y,Y,Y,Y,N,N,Y,Y,Y,Y,N,N,N,N,Y,N,N,N,N,N,N,7/26/2018 5:45:58 PM
1016803,Pitkin Verde Farmers Market,http://www.cypresshills.org,www.facebook.com/CHLDC,twitter.com/CHLDC,,,Kings,New York,11207,07/17/2018 to 11/20/2018,Tue: 9:00 AM-5:30 PM;,,,,,,,-73.895438,40.671863,,Y,Y,N,Y,Y,N,N,N,N,Y,N,N,Y,Y,N,N,N,N,N,N,N,N,N,N,N,N,N,N,Y,N,N,Y,N,N,N,7/30/2018 10:19:07 AM
1021455,Pleasantville Farmers Market - Outdoor,https://www.pleasantvillefarmersmarket.org/,https://www.facebook.com/PvilleFarmMarket,,,,Westchester,New York,10570,04/03/2021 to 04/03/2021,Sat: 8:30 AM-1:00 PM;,12/01/2021 to 12/01/2021,Sat: 9:00 AM-11:30 AM;,,,,,-73.793652,41.135051,,Y,Y,Y,Y,Y,Y,Y,Y,Y,Y,Y,Y,Y,Y,Y,Y,Y,Y,N,N,Y,Y,Y,Y,N,Y,Y,N,Y,Y,Y,Y,Y,N,Y,4/28/2021 8:42:27 PM
1011146,Poestenkill Farmers Market,http://www.poestenkillfarmersmarket.com,http://www.facebook.com/poestenkillfarmersmarket,,,,Rensselaer,New York,12140,06/16/2018 to 09/29/2018,Sat: 9:00 AM-12:00 PM;,,,,,,,-73.5635307,42.6904758,,Y,N,N,N,N,N,Y,Y,Y,Y,Y,N,Y,Y,Y,Y,Y,Y,N,N,Y,Y,N,Y,N,Y,N,N,Y,N,N,Y,Y,N,N,7/26/2018 4:34:00 PM
1019027,Port Chester Farmers Market,https://www.portchesterfarmersmarket.com,https://www.facebook/Port-Chester-Farmers-Market-1440567712732869/,https://www.twitter.com/cgmarketsllc,,https://www.instagram.com/portchesterfarmersmarket/,Westchester,New York,10573,01/01/2018 to 12/31/2018,Sun: 10:00 AM-2:00 PM;,,,,,,,-73.661339,41.00211,,Y,N,N,N,Y,Y,Y,Y,N,N,Y,Y,Y,Y,Y,Y,Y,Y,N,Y,N,Y,Y,N,N,N,Y,N,Y,N,Y,Y,Y,N,N,3/24/2018 8:09:22 AM
1018349,Roosevelt Community Farmers' Market,http://www.rooseveltfarmersmarket.com,https://www.facebook.com/Roosevelt-Community-Farmers-Market-1412573385674026/?ref=bookmarks,@RCRGLI,https://www.youtube.com/results?search_query=roosevelt+community+revitalization+group,,Nassau,New York,11575,07/07/2019 to 10/27/2019,Sun: 11:00 AM-3:00 PM;,,,,,,,-73.5908479,40.6817846,,Y,Y,N,Y,Y,Y,N,N,N,Y,N,N,N,Y,Y,N,Y,N,N,N,N,N,N,N,N,N,N,N,Y,N,Y,N,N,N,N,12/21/2018 11:40:45 PM
1002062,Salamanca Farmers market,,,,,,Cattaraugus,New York,14779,05/22/2018 to 10/30/2018,Tue: 11:00 AM-5:00 PM;,05/26/2020 to 10/27/2020,Tue: 11:00 AM-5:00 PM;,,,,,-78.741263,42.164734,,Y,N,N,Y,Y,N,Y,N,Y,Y,Y,N,Y,Y,Y,Y,Y,Y,N,N,Y,Y,Y,Y,N,N,N,N,Y,N,N,N,N,N,N,12/28/2020 6:10:47 PM
1012203,Saranac Lake Village Farmers Market,http://www.ausablevalleygrangefarmersmarkets.com,https://www.facebook.com/ausablevalleygrangefarmersmarkets/,,,,Franklin,New York,12983,06/04/2016 to 10/15/2016,Sat: 9:00 AM-2:00 PM;,10/20/2018 to 12/22/2018,Sat: 10:00 AM-2:00 PM;,,,,,-74.131251,44.32463,,Y,Y,N,N,Y,-,Y,Y,Y,Y,Y,N,N,Y,Y,Y,Y,Y,N,Y,Y,N,Y,Y,N,Y,Y,N,Y,N,Y,Y,N,N,N,8/14/2018 10:33:37 AM
1007250,Saugerties Farmers Market ,http://www.saugertiesfarmersmarket.com/,https://www.facebook.com/SaugertiesFarmersMarket,,,Instagram: @saugertiesfarmersmarket,Ulster,New York,12477,05/29/2021 to 05/29/2021,Sat: 10:00 AM-2:00 PM;,,,,,,,-73.946818,42.080345,,Y,Y,N,N,Y,-,Y,Y,N,Y,Y,N,Y,Y,Y,Y,Y,Y,N,N,Y,Y,Y,Y,Y,Y,Y,N,Y,N,Y,N,N,Y,N,1/25/2021 5:09:41 PM
1019515,Scottsville Midweek Farmers' Market,,Scottsville Midweek Farmers' Market,,,,Monroe,New York,14546,06/05/2019 to 09/25/2019,Wed: 4:00 PM-7:00 PM;,,,,,,,-77.753379,43.022276,,Y,Y,Y,Y,N,N,Y,Y,N,Y,Y,N,Y,Y,Y,Y,N,Y,N,N,N,Y,Y,Y,N,N,N,N,Y,N,N,N,N,N,N,5/8/2019 8:57:31 AM
1019442,Seneca Falls Farmers Market,http://senecamarket.com,https://www.facebook.com/SenecaFallsFarmersMarket/,,,,Seneca,New York,13148,06/16/2020 to 10/13/2020,Tue: 3:00 PM-7:00 PM;,,,,,,,-76.800314,42.909109,,Y,Y,N,Y,Y,-,Y,Y,Y,Y,Y,N,N,Y,Y,Y,Y,Y,N,N,Y,Y,Y,Y,N,N,Y,N,Y,N,N,N,Y,N,N,8/3/2020 2:03:10 PM
1019926,Sodus Farmers' Market,https://www.sutmc.org/sodus-farmers-market,https://www.facebook.com/SodusFarmersMarket/?eid=ARAx1anugPLGTuAOgrSyAlxV8qSLvqleZBvkN3fo2Pe5yANpwQzvWSFcv6MK2K1anPvrVy_2sGgpGRfe,,,Instagram - sodusfm,Wayne,New York,14551,07/08/2020 to 10/07/2020,Wed: 2:30 PM-6:00 PM;,,,,,,,-77.062753,43.237102,,Y,N,Y,Y,Y,N,Y,Y,N,Y,N,N,Y,Y,Y,Y,N,N,N,N,Y,N,Y,Y,N,N,N,N,Y,N,N,N,N,N,N,6/19/2020 3:33:20 PM
1002063,Southern Tier Farmers Market - Olean,,https://www.facebook.com/pages/Southern-Tier-Farmers-Market/165092373544019,,,,Cattaraugus,New York,14760,05/18/2018 to 10/26/2018,Fri: 2:00 PM-6:00 PM;,,,,,,,-78.041832,42.211214,,Y,Y,Y,Y,Y,N,Y,N,Y,Y,Y,N,Y,Y,Y,Y,Y,N,N,N,Y,N,N,Y,N,N,N,N,Y,N,N,N,N,N,N,5/20/2018 5:29:57 PM
1019181,The cornwall farmers market,,,,,,Orange,New York,12518,05/26/2018 to 09/26/2018,Wed: 11:00 AM-5:00 PM;,,,,,,,-74.059815,41.442234,,Y,N,N,N,N,Y,Y,Y,N,Y,Y,N,N,Y,Y,Y,N,Y,N,N,N,N,Y,Y,N,N,Y,N,Y,N,N,N,N,N,N,7/26/2018 4:12:54 PM
1020002,Troy Waterfront Farmers Market,http://troymarket.org,facebook.com/troywaterfrontfarmersmarket,,,instagram.com/troymarket,Rensselaer,New York,12180,01/01/2020 to 12/31/2020,Sun: 8:30 AM-2:00 PM;,,,,,,,-73.691288,42.732715,,Y,Y,Y,Y,Y,Y,Y,Y,N,Y,Y,Y,Y,Y,Y,Y,Y,Y,N,Y,Y,Y,Y,Y,Y,Y,Y,N,Y,Y,Y,Y,Y,Y,Y,7/31/2020 12:58:07 PM
1001999,Utica Farmers Market,http://www.CityofUtica.com,,,,,Oneida,New York,13501,06/30/2021 to 06/30/2021,Wed: 8:00 AM-5:00 PM;,,,,,,,-75.225983,43.096382,,Y,Y,Y,Y,Y,N,Y,N,N,N,Y,N,N,Y,Y,Y,Y,N,N,N,N,N,N,N,N,N,N,N,Y,N,N,N,N,N,N,1/27/2021 11:13:03 AM
1001925,Voorheesville Farmers Market,,https://www.facebook.com/VoorheesvilleFarmersMarket,,,,Albany,New York,12186,06/16/2021 to 06/16/2021,Wed: 3:30 PM-6:30 PM;,,,,,,,-73.930027,42.649656,,Y,N,N,N,Y,N,Y,N,N,Y,Y,N,Y,Y,Y,N,Y,N,N,N,Y,N,Y,Y,N,N,Y,N,Y,N,N,N,N,N,N,1/25/2021 4:00:18 PM
1020021,Waterloo Rotary Farm Market,,https://www.facebook.com/rotaryfarmarket,,,,Seneca,New York,13165,06/20/2020 to 10/03/2020,Sat: 9:00 AM-1:00 PM;,,,,,,,-76.865814,42.903737,,Y,Y,N,Y,Y,N,Y,Y,Y,Y,Y,N,N,Y,Y,Y,Y,N,N,N,N,N,N,N,N,N,Y,N,Y,N,N,N,N,N,N,8/3/2020 2:28:33 PM
1000384,Webster's Joe Obbie Farmers' Market Inc.,http://www.webstersjoeobbiefarmersmarketinc.org,https://www.facebook.com/pages/Websters-Joe-Obbie-Farmers-Market-Inc/271407932889827,,,,Monroe,New York,14580,06/01/2020 to 10/31/2020,Sat: 8:30 AM-1:00 PM;,,,,,,,-77.452948,43.212229,,Y,Y,N,Y,N,-,Y,N,Y,Y,Y,N,N,Y,Y,Y,Y,Y,N,N,Y,N,N,N,N,N,N,N,Y,N,Y,N,N,N,N,1/5/2021 10:18:30 AM
1002177,West Point-Town of Highlands Farmers Market,,https://www.facebook.com/pages/WestPointTownofHighlandsFarmersMarket,,,,Orange,New York,10928,06/17/2018 to 10/28/2018,Sun: 9:00 AM-2:00 PM;,,,,,,,-73.96631,41.36957,,Y,Y,N,Y,N,Y,Y,Y,Y,N,Y,N,Y,Y,Y,Y,N,Y,N,N,N,Y,Y,Y,N,N,N,N,Y,N,N,N,N,N,N,8/2/2018 12:58:13 AM
1019038,Woodstock Farm Festival,https://www.woodstockfarmfestival.org/,https://www.facebook.com/woodstockfarmfestival/,,,https://www.instagram.com/woodstockfarmfest/,Ulster,New York,12498,05/30/2018 to 10/17/2018,Wed: 3:30 AM-8:00 PM;,,,,,,,-74.117834,42.040522,,Y,Y,Y,Y,Y,Y,Y,N,N,Y,Y,Y,Y,Y,Y,Y,Y,Y,N,N,Y,Y,Y,Y,N,N,N,N,Y,N,N,Y,N,N,N,4/4/2018 11:27:02 AM
1007259,Yates County Cooperative Farm and Craft Market (Penn Yan Market),https://www.facebook.com/PennYan.Farmers.Market,https://www.facebook.com/PennYan.Farmers.Market,,,,Yates,New York,14527,05/25/2019 to 10/12/2019,Sat: 7:30 AM-12:00 PM;,11/23/2019 to 11/23/2019,Sat: 9:00 AM-1:00 PM;,,,,,-77.053889,42.661345,,Y,Y,N,Y,N,Y,Y,Y,Y,Y,Y,N,Y,Y,Y,Y,Y,Y,N,N,Y,Y,N,Y,N,N,N,N,Y,N,N,N,N,N,N,2/3/2019 12:29:07 PM
